Number,Neighborhood,Per Capita Income - BRL,IDH-L,IDH-E,IDH-R,IDH,Address,location,point,latitude,longitude,altitude,Zones
0,Gávea,2139.0,92.4,98.7,100.0,97.0,"Gávea, Rio de Janeiro, Brazil","Gávea, Zona Sul do Rio de Janeiro, Rio de Janeiro, Região Geográfica Imediata do Rio de Janeiro, Região Metropolitana do Rio de Janeiro, Região Geográfica Intermediária do Rio de Janeiro, Rio de Janeiro, Região Sudeste, Brasil","(-22.9814243, -43.2383245, 0.0)",-22.9814243,-43.2383245,0.0,South
1,Leblon,2441.0,90.8,99.3,100.0,96.7,"Leblon, Rio de Janeiro, Brazil","Leblon, Zona Sul do Rio de Janeiro, Rio de Janeiro, Região Geográfica Imediata do Rio de Janeiro, Região Metropolitana do Rio de Janeiro, Região Geográfica Intermediária do Rio de Janeiro, Rio de Janeiro, Região Sudeste, Brasil","(-22.983556, -43.2249377, 0.0)",-22.983556,-43.2249377,0.0,South
2,Jardim Guanabara,1316.0,92.4,99.3,97.2,96.3,"Jardim Guanabara, Rio de Janeiro, Brazil","Jardim Guanabara, Zona Norte do Rio de Janeiro, Rio de Janeiro, Região Geográfica Imediata do Rio de Janeiro, Região Metropolitana do Rio de Janeiro, Região Geográfica Intermediária do Rio de Janeiro, Rio de Janeiro, Região Sudeste, Brasil","(-22.8128362, -43.2007792, 0.0)",-22.8128362,-43.2007792,0.0,North
3,Ipanema,2465.0,89.5,99.2,100.0,96.2,"Ipanema, Rio de Janeiro, Brazil","Ipanema, Zona Sul do Rio de Janeiro, Rio de Janeiro, Região Geográfica Imediata do Rio de Janeiro, Região Metropolitana do Rio de Janeiro, Região Geográfica Intermediária do Rio de Janeiro, Rio de Janeiro, Região Sudeste, Brasil","(-22.9839557, -43.2022163, 0.0)",-22.9839557,-43.2022163,0.0,South
4,Lagoa,2955.0,88.2,99.6,100.0,95.89999999999999,"Lagoa, Rio de Janeiro, Brazil","Lagoa, Zona Sul do Rio de Janeiro, Rio de Janeiro, Região Geográfica Imediata do Rio de Janeiro, Região Metropolitana do Rio de Janeiro, Região Geográfica Intermediária do Rio de Janeiro, Rio de Janeiro, Região Sudeste, Brasil","(-22.9624658, -43.2024884, 0.0)",-22.9624658,-43.2024884,0.0,South
5,Flamengo,1781.0,88.2,99.5,100.0,95.89999999999999,"Flamengo, Rio de Janeiro, Brazil","Flamengo, Zona Sul do Rio de Janeiro, Rio de Janeiro, Região Geográfica Imediata do Rio de Janeiro, Região Metropolitana do Rio de Janeiro, Região Geográfica Intermediária do Rio de Janeiro, Rio de Janeiro, Região Sudeste, Brasil","(-22.9339841, -43.1745744, 0.0)",-22.9339841,-43.1745744,0.0,South
6,Humaitá,1830.0,88.2,99.5,100.0,95.89999999999999,"Humaitá, Rio de Janeiro, Brazil","Humaitá, Zona Sul do Rio de Janeiro, Rio de Janeiro, Região Geográfica Imediata do Rio de Janeiro, Região Metropolitana do Rio de Janeiro, Região Geográfica Intermediária do Rio de Janeiro, Rio de Janeiro, Região Sudeste, Brasil","(-22.9546413, -43.2004797, 0.0)",-22.9546413,-43.2004797,0.0,South
7,Barra da Tijuca,2488.0,88.1,99.6,100.0,95.89999999999999,"Barra da Tijuca, Rio de Janeiro, Brazil","Barra da Tijuca, Zona Oeste do Rio de Janeiro, Rio de Janeiro, Região Geográfica Imediata do Rio de Janeiro, Região Metropolitana do Rio de Janeiro, Região Geográfica Intermediária do Rio de Janeiro, Rio de Janeiro, Região Sudeste, Brasil","(-22.9997404, -43.3659929, 0.0)",-22.9997404,-43.3659929,0.0,West
8, Joá,2488.0,88.1,99.6,100.0,95.89999999999999," Joá, Rio de Janeiro, Brazil","Joá, Zona Oeste do Rio de Janeiro, Rio de Janeiro, Região Geográfica Imediata do Rio de Janeiro, Região Metropolitana do Rio de Janeiro, Região Geográfica Intermediária do Rio de Janeiro, Rio de Janeiro, Região Sudeste, Brasil","(-23.0077797, -43.2872344, 0.0)",-23.0077797,-43.2872344,0.0,West
9,Laranjeiras,1679.0,88.1,99.2,100.0,95.7,"Laranjeiras, Rio de Janeiro, Brazil","Laranjeiras, Zona Sul do Rio de Janeiro, Rio de Janeiro, Região Geográfica Imediata do Rio de Janeiro, Região Metropolitana do Rio de Janeiro, Região Geográfica Intermediária do Rio de Janeiro, Rio de Janeiro, Região Sudeste, Brasil","(-22.9343173, -43.1878165, 0.0)",-22.9343173,-43.1878165,0.0,South
10,Jardim Botânico,1952.0,88.1,99.1,100.0,95.7,"Jardim Botânico, Rio de Janeiro, Brazil","Jardim Botanico, Horto, Jardim Botânico, Zona Sul do Rio de Janeiro, Rio de Janeiro, Região Geográfica Imediata do Rio de Janeiro, Região Metropolitana do Rio de Janeiro, Região Geográfica Intermediária do Rio de Janeiro, Rio de Janeiro, Região Sudeste, Brasil","(-22.968384550000003, -43.22869449858106, 0.0)",-22.968384550000003,-43.22869449858106,0.0,South
11,Copacabana,1623.0,88.0,99.0,100.0,95.6,"Copacabana, Rio de Janeiro, Brazil","Copacabana, Zona Sul do Rio de Janeiro, Rio de Janeiro, Região Geográfica Imediata do Rio de Janeiro, Região Metropolitana do Rio de Janeiro, Região Geográfica Intermediária do Rio de Janeiro, Rio de Janeiro, Região Sudeste, Brasil","(-22.9719642, -43.1843432, 0.0)",-22.9719642,-43.1843432,0.0,South
12,Leme,1713.0,87.5,99.2,100.0,95.5,"Leme, Rio de Janeiro, Brazil","Leme, Zona Sul do Rio de Janeiro, Rio de Janeiro, Região Geográfica Imediata do Rio de Janeiro, Região Metropolitana do Rio de Janeiro, Região Geográfica Intermediária do Rio de Janeiro, Rio de Janeiro, Região Sudeste, Brasil","(-22.961704, -43.1669042, 0.0)",-22.961704,-43.1669042,0.0,South
13,Botafogo,1376.0,88.8,99.0,97.89999999999999,95.19999999999999,"Botafogo, Rio de Janeiro, Brazil","Botafogo de Futebol e Regatas, Avenida Repórter Nestor Moreira, Botafogo, Zona Sul do Rio de Janeiro, Rio de Janeiro, Região Geográfica Imediata do Rio de Janeiro, Região Metropolitana do Rio de Janeiro, Região Geográfica Intermediária do Rio de Janeiro, Rio de Janeiro, Região Sudeste, 22290-210, Brasil","(-22.948844649999998, -43.17982909625297, 0.0)",-22.948844649999998,-43.17982909625297,0.0,South
14, Urca,1376.0,88.8,99.0,97.89999999999999,95.19999999999999," Urca, Rio de Janeiro, Brazil","Urca, Zona Sul do Rio de Janeiro, Rio de Janeiro, Região Geográfica Imediata do Rio de Janeiro, Região Metropolitana do Rio de Janeiro, Região Geográfica Intermediária do Rio de Janeiro, Rio de Janeiro, Região Sudeste, Brasil","(-22.954074, -43.1679727, 0.0)",-22.954074,-43.1679727,0.0,South
15,Maracanã,1206.0,88.2,99.3,95.7,94.39999999999999,"Maracanã, Rio de Janeiro, Brazil","Maracanã, Avenida Presidente Castelo Branco, Maracanã, Zona Norte do Rio de Janeiro, Rio de Janeiro, Região Geográfica Imediata do Rio de Janeiro, Região Metropolitana do Rio de Janeiro, Região Geográfica Intermediária do Rio de Janeiro, Rio de Janeiro, Região Sudeste, 20271-130, Brasil","(-22.912091949999997, -43.23114540590559, 0.0)",-22.912091949999997,-43.23114540590559,0.0,North
16,Glória,1183.0,87.3,99.4,95.39999999999999,94.0,"Glória, Rio de Janeiro, Brazil","Glória, Zona Central do Rio de Janeiro, Rio de Janeiro, Região Geográfica Imediata do Rio de Janeiro, Região Metropolitana do Rio de Janeiro, Região Geográfica Intermediária do Rio de Janeiro, Rio de Janeiro, Região Sudeste, Brasil","(-22.9183225, -43.1739232, 0.0)",-22.9183225,-43.1739232,0.0,Downtown
17,Méier,1000.0,87.3,99.3,92.60000000000001,93.10000000000001,"Méier, Rio de Janeiro, Brazil","Méier, Zona Norte do Rio de Janeiro, Rio de Janeiro, Região Geográfica Imediata do Rio de Janeiro, Região Metropolitana do Rio de Janeiro, Região Geográfica Intermediária do Rio de Janeiro, Rio de Janeiro, Região Sudeste, Brasil","(-22.9026425, -43.2817263, 0.0)",-22.9026425,-43.2817263,0.0,North
18,Tijuca,1204.0,83.39999999999999,98.7,95.7,92.60000000000001,"Tijuca, Rio de Janeiro, Brazil","Tijuca, Zona Norte do Rio de Janeiro, Rio de Janeiro, Região Geográfica Imediata do Rio de Janeiro, Região Metropolitana do Rio de Janeiro, Região Geográfica Intermediária do Rio de Janeiro, Rio de Janeiro, Região Sudeste, Brasil","(-22.9332164, -43.2381453, 0.0)",-22.9332164,-43.2381453,0.0,North
19, Alto da Boa Vista,1204.0,83.39999999999999,98.7,95.7,92.60000000000001," Alto da Boa Vista, Rio de Janeiro, Brazil","Alto da Boa Vista, Zona Norte do Rio de Janeiro, Rio de Janeiro, Região Geográfica Imediata do Rio de Janeiro, Região Metropolitana do Rio de Janeiro, Região Geográfica Intermediária do Rio de Janeiro, Rio de Janeiro, Região Sudeste, 20531-570, Brasil","(-22.9621126, -43.2535816, 0.0)",-22.9621126,-43.2535816,0.0,North
20,Todos os Santos,825.0,88.2,99.0,89.4,92.2,"Todos os Santos, Rio de Janeiro, Brazil","Todos os Santos, Zona Norte do Rio de Janeiro, Rio de Janeiro, Região Geográfica Imediata do Rio de Janeiro, Região Metropolitana do Rio de Janeiro, Região Geográfica Intermediária do Rio de Janeiro, Rio de Janeiro, Região Sudeste, Brasil","(-22.894563, -43.28506, 0.0)",-22.894563,-43.28506,0.0,North
21,Anil,768.0,86.9,98.2,88.2,91.10000000000001,"Anil, Rio de Janeiro, Brazil","Anil, Zona Oeste do Rio de Janeiro, Rio de Janeiro, Região Geográfica Imediata do Rio de Janeiro, Região Metropolitana do Rio de Janeiro, Região Geográfica Intermediária do Rio de Janeiro, Rio de Janeiro, Região Sudeste, 22750-006, Brasil","(-22.9558133, -43.3384123, 0.0)",-22.9558133,-43.3384123,0.0,West
22,Vila da Penha,669.0,87.7,99.2,85.9,90.9,"Vila da Penha, Rio de Janeiro, Brazil","Vila da Penha, Zona Norte do Rio de Janeiro, Rio de Janeiro, Região Geográfica Imediata do Rio de Janeiro, Região Metropolitana do Rio de Janeiro, Região Geográfica Intermediária do Rio de Janeiro, Rio de Janeiro, Região Sudeste, Brasil","(-22.8435065, -43.3100585, 0.0)",-22.8435065,-43.3100585,0.0,North
23,Andaraí,897.0,83.3,98.7,90.8,90.9,"Andaraí, Rio de Janeiro, Brazil","Andaraí, Zona Norte do Rio de Janeiro, Rio de Janeiro, Região Geográfica Imediata do Rio de Janeiro, Região Metropolitana do Rio de Janeiro, Região Geográfica Intermediária do Rio de Janeiro, Rio de Janeiro, Região Sudeste, Brasil","(-22.9290845, -43.2534858, 0.0)",-22.9290845,-43.2534858,0.0,North
24,Riachuelo,715.0,85.7,98.9,87.0,90.5,"Riachuelo, Rio de Janeiro, Brazil","Riachuelo, Zona Norte do Rio de Janeiro, Rio de Janeiro, Região Geográfica Imediata do Rio de Janeiro, Região Metropolitana do Rio de Janeiro, Região Geográfica Intermediária do Rio de Janeiro, Rio de Janeiro, Região Sudeste, Brasil","(-22.9026953, -43.255175, 0.0)",-22.9026953,-43.255175,0.0,North
25,Campinho,684.0,87.5,97.5,86.3,90.4,"Campinho, Rio de Janeiro, Brazil","Campinho, Zona Norte do Rio de Janeiro, Rio de Janeiro, Região Geográfica Imediata do Rio de Janeiro, Região Metropolitana do Rio de Janeiro, Região Geográfica Intermediária do Rio de Janeiro, Rio de Janeiro, Região Sudeste, 21320-060, Brasil","(-22.8852187, -43.347738, 0.0)",-22.8852187,-43.347738,0.0,North
26, Vila Valqueire,684.0,87.5,97.5,86.3,90.4," Vila Valqueire, Rio de Janeiro, Brazil","Vila Valqueire, Zona Oeste do Rio de Janeiro, Rio de Janeiro, Região Geográfica Imediata do Rio de Janeiro, Região Metropolitana do Rio de Janeiro, Região Geográfica Intermediária do Rio de Janeiro, Rio de Janeiro, Região Sudeste, Brasil","(-22.8886093, -43.3657758, 0.0)",-22.8886093,-43.3657758,0.0,West
27,Moneró,730.0,85.7,98.1,87.3,90.4,"Moneró, Rio de Janeiro, Brazil","Moneró, Zona Norte do Rio de Janeiro, Rio de Janeiro, Região Geográfica Imediata do Rio de Janeiro, Região Metropolitana do Rio de Janeiro, Região Geográfica Intermediária do Rio de Janeiro, Rio de Janeiro, Região Sudeste, Brasil","(-22.7964947, -43.197406, 0.0)",-22.7964947,-43.197406,0.0,North
28, Portuguesa,730.0,85.7,98.1,87.3,90.4," Portuguesa, Rio de Janeiro, Brazil","Portuguesa, Zona Norte do Rio de Janeiro, Rio de Janeiro, Região Geográfica Imediata do Rio de Janeiro, Região Metropolitana do Rio de Janeiro, Região Geográfica Intermediária do Rio de Janeiro, Rio de Janeiro, Região Sudeste, 21931-003, Brasil","(-22.7999597, -43.2068169, 0.0)",-22.7999597,-43.2068169,0.0,North
29,Catete,822.0,83.3,97.8,89.3,90.10000000000001,"Catete, Rio de Janeiro, Brazil","Catete, Zona Sul do Rio de Janeiro, Rio de Janeiro, Região Geográfica Imediata do Rio de Janeiro, Região Metropolitana do Rio de Janeiro, Região Geográfica Intermediária do Rio de Janeiro, Rio de Janeiro, Região Sudeste, Brasil","(-22.9269199, -43.1802186, 0.0)",-22.9269199,-43.1802186,0.0,South
30,Vila Isabel,931.0,80.80000000000001,98.1,91.4,90.10000000000001,"Vila Isabel, Rio de Janeiro, Brazil","Vila Isabel, Zona Norte do Rio de Janeiro, Rio de Janeiro, Região Geográfica Imediata do Rio de Janeiro, Região Metropolitana do Rio de Janeiro, Região Geográfica Intermediária do Rio de Janeiro, Rio de Janeiro, Região Sudeste, Brasil","(-22.9152219, -43.2472627, 0.0)",-22.9152219,-43.2472627,0.0,North
31,Cachambi,709.0,84.5,98.8,86.8,90.0,"Cachambi, Rio de Janeiro, Brazil","Cachambi, Zona Norte do Rio de Janeiro, Rio de Janeiro, Região Geográfica Imediata do Rio de Janeiro, Região Metropolitana do Rio de Janeiro, Região Geográfica Intermediária do Rio de Janeiro, Rio de Janeiro, Região Sudeste, Brasil","(-22.8897634, -43.2744953, 0.0)",-22.8897634,-43.2744953,0.0,North
32,Pechincha,751.0,84.39999999999999,97.8,87.8,90.0,"Pechincha, Rio de Janeiro, Brazil","Pechincha, Zona Oeste do Rio de Janeiro, Rio de Janeiro, Região Geográfica Imediata do Rio de Janeiro, Região Metropolitana do Rio de Janeiro, Região Geográfica Intermediária do Rio de Janeiro, Rio de Janeiro, Região Sudeste, Brasil","(-22.928988, -43.3534191, 0.0)",-22.928988,-43.3534191,0.0,West
33,Freguesia (Ilha),766.0,83.39999999999999,97.89999999999999,88.2,89.8,"Freguesia (Ilha), Rio de Janeiro, Brazil","Freguesia (Ilha), Zona Norte do Rio de Janeiro, Rio de Janeiro, Região Geográfica Imediata do Rio de Janeiro, Região Metropolitana do Rio de Janeiro, Região Geográfica Intermediária do Rio de Janeiro, Rio de Janeiro, Região Sudeste, Brasil","(-22.7850602, -43.1694534, 0.0)",-22.7850602,-43.1694534,0.0,North
34,Recreio dos Bandeirantes,1166.0,79.3,93.89999999999999,95.19999999999999,89.4,"Recreio dos Bandeirantes, Rio de Janeiro, Brazil","Recreio dos Bandeirantes, Zona Oeste do Rio de Janeiro, Rio de Janeiro, Região Geográfica Imediata do Rio de Janeiro, Região Metropolitana do Rio de Janeiro, Região Geográfica Intermediária do Rio de Janeiro, Rio de Janeiro, Região Sudeste, Brasil","(-23.0185151, -43.4634021, 0.0)",-23.0185151,-43.4634021,0.0,West
35, Grumari,1166.0,79.3,93.89999999999999,95.19999999999999,89.4," Grumari, Rio de Janeiro, Brazil","Grumari, Zona Oeste do Rio de Janeiro, Rio de Janeiro, Região Geográfica Imediata do Rio de Janeiro, Região Metropolitana do Rio de Janeiro, Região Geográfica Intermediária do Rio de Janeiro, Rio de Janeiro, Região Sudeste, Brasil","(-23.0470388, -43.5334787, 0.0)",-23.0470388,-43.5334787,0.0,West
36,Centro,633.0,85.2,98.1,85.0,89.4,"Centro, Rio de Janeiro, Brazil","Centro, Zona Central do Rio de Janeiro, Rio de Janeiro, Região Geográfica Imediata do Rio de Janeiro, Região Metropolitana do Rio de Janeiro, Região Geográfica Intermediária do Rio de Janeiro, Rio de Janeiro, Região Sudeste, Brasil","(-22.9043934, -43.1830653, 0.0)",-22.9043934,-43.1830653,0.0,Downtown
37, Lapa,633.0,85.2,98.1,85.0,89.4," Lapa, Rio de Janeiro, Brazil","Lapa, Zona Central do Rio de Janeiro, Rio de Janeiro, Região Geográfica Imediata do Rio de Janeiro, Região Metropolitana do Rio de Janeiro, Região Geográfica Intermediária do Rio de Janeiro, Rio de Janeiro, Região Sudeste, Brasil","(-22.9130257, -43.1822358, 0.0)",-22.9130257,-43.1822358,0.0,Downtown
38,Higienópolis,614.0,81.8,98.3,84.5,88.2,"Higienópolis, Rio de Janeiro, Brazil","Higienópolis, Zona Norte do Rio de Janeiro, Rio de Janeiro, Região Geográfica Imediata do Rio de Janeiro, Região Metropolitana do Rio de Janeiro, Região Geográfica Intermediária do Rio de Janeiro, Rio de Janeiro, Região Sudeste, 21061-280, Brasil","(-22.873999, -43.2613682, 0.0)",-22.873999,-43.2613682,0.0,North
39,Santa Teresa,701.0,81.8,95.0,86.7,87.8,"Santa Teresa, Rio de Janeiro, Brazil","Santa Teresa, Zona Central do Rio de Janeiro, Rio de Janeiro, Região Geográfica Imediata do Rio de Janeiro, Região Metropolitana do Rio de Janeiro, Região Geográfica Intermediária do Rio de Janeiro, Rio de Janeiro, Região Sudeste, 20240-193, Brasil","(-22.9213991, -43.1882138, 0.0)",-22.9213991,-43.1882138,0.0,Downtown
40, Cosme Velho,701.0,81.8,95.0,86.7,87.8," Cosme Velho, Rio de Janeiro, Brazil","Cosme Velho, Zona Sul do Rio de Janeiro, Rio de Janeiro, Região Geográfica Imediata do Rio de Janeiro, Região Metropolitana do Rio de Janeiro, Região Geográfica Intermediária do Rio de Janeiro, Rio de Janeiro, Região Sudeste, Brasil","(-22.9415143, -43.2006244, 0.0)",-22.9415143,-43.2006244,0.0,South
41,Água Santa,496.0,85.3,96.89999999999999,80.9,87.7,"Água Santa, Rio de Janeiro, Brazil","Água Santa, Zona Norte do Rio de Janeiro, Rio de Janeiro, Região Geográfica Imediata do Rio de Janeiro, Região Metropolitana do Rio de Janeiro, Região Geográfica Intermediária do Rio de Janeiro, Rio de Janeiro, Região Sudeste, Brasil","(-22.9111428, -43.3121258, 0.0)",-22.9111428,-43.3121258,0.0,North
42, Encantado,496.0,85.3,96.89999999999999,80.9,87.7," Encantado, Rio de Janeiro, Brazil","Encantado, Zona Norte do Rio de Janeiro, Rio de Janeiro, Região Geográfica Imediata do Rio de Janeiro, Região Metropolitana do Rio de Janeiro, Região Geográfica Intermediária do Rio de Janeiro, Rio de Janeiro, Região Sudeste, 20745000, Brasil","(-22.8974743, -43.3042461, 0.0)",-22.8974743,-43.3042461,0.0,North
43,Taquara,544.0,85.3,95.1,82.39999999999999,87.6,"Taquara, Rio de Janeiro, Brazil","Taquara, Zona Oeste do Rio de Janeiro, Rio de Janeiro, Região Geográfica Imediata do Rio de Janeiro, Região Metropolitana do Rio de Janeiro, Região Geográfica Intermediária do Rio de Janeiro, Rio de Janeiro, Região Sudeste, Brasil","(-22.9218864, -43.384646, 0.0)",-22.9218864,-43.384646,0.0,West
44,Vila Kosmos,498.0,87.0,94.89999999999999,81.0,87.6,"Vila Kosmos, Rio de Janeiro, Brazil","Vila Kosmos, Zona Norte do Rio de Janeiro, Rio de Janeiro, Região Geográfica Imediata do Rio de Janeiro, Região Metropolitana do Rio de Janeiro, Região Geográfica Intermediária do Rio de Janeiro, Rio de Janeiro, Região Sudeste, Brasil","(-22.853597, -43.3032021, 0.0)",-22.853597,-43.3032021,0.0,North
45,Vidigal,1131.0,76.9,90.5,94.6,87.3,"Vidigal, Rio de Janeiro, Brazil","Vidigal, Zona Sul do Rio de Janeiro, Rio de Janeiro, Região Geográfica Imediata do Rio de Janeiro, Região Metropolitana do Rio de Janeiro, Região Geográfica Intermediária do Rio de Janeiro, Rio de Janeiro, Região Sudeste, Brasil","(-22.9952094, -43.2408556, 0.0)",-22.9952094,-43.2408556,0.0,South
46, São Conrado,1131.0,76.9,90.5,94.6,87.3," São Conrado, Rio de Janeiro, Brazil","São Conrado, Zona Sul do Rio de Janeiro, Rio de Janeiro, Região Geográfica Imediata do Rio de Janeiro, Região Metropolitana do Rio de Janeiro, Região Geográfica Intermediária do Rio de Janeiro, Rio de Janeiro, Região Sudeste, Brasil","(-22.9913592, -43.2675329, 0.0)",-22.9913592,-43.2675329,0.0,South
47,Cidade Nova,640.0,78.4,96.5,85.1,86.7,"Cidade Nova, Rio de Janeiro, Brazil","Cidade Nova, Zona Central do Rio de Janeiro, Rio de Janeiro, Região Geográfica Imediata do Rio de Janeiro, Região Metropolitana do Rio de Janeiro, Região Geográfica Intermediária do Rio de Janeiro, Rio de Janeiro, Região Sudeste, Brasil","(-22.9100508, -43.201756, 0.0)",-22.9100508,-43.201756,0.0,Downtown
48, Praça da Bandeira,640.0,78.4,96.5,85.1,86.7," Praça da Bandeira, Rio de Janeiro, Brazil","Praça da Bandeira, Zona Norte do Rio de Janeiro, Rio de Janeiro, Região Geográfica Imediata do Rio de Janeiro, Região Metropolitana do Rio de Janeiro, Região Geográfica Intermediária do Rio de Janeiro, Rio de Janeiro, Região Sudeste, Brasil","(-22.9112162, -43.2131983, 0.0)",-22.9112162,-43.2131983,0.0,North
49,Bonsucesso,552.0,82.8,92.80000000000001,82.69999999999999,86.1,"Bonsucesso, Rio de Janeiro, Brazil","Bonsucesso, Zona Norte do Rio de Janeiro, Rio de Janeiro, Região Geográfica Imediata do Rio de Janeiro, Região Metropolitana do Rio de Janeiro, Região Geográfica Intermediária do Rio de Janeiro, Rio de Janeiro, Região Sudeste, Brasil","(-22.8659317, -43.253318, 0.0)",-22.8659317,-43.253318,0.0,North
50,Cocotá,518.0,81.8,94.89999999999999,81.6,86.1,"Cocotá, Rio de Janeiro, Brazil","Cocotá, Zona Norte do Rio de Janeiro, Rio de Janeiro, Região Geográfica Imediata do Rio de Janeiro, Região Metropolitana do Rio de Janeiro, Região Geográfica Intermediária do Rio de Janeiro, Rio de Janeiro, Região Sudeste, Brasil","(-22.8050047, -43.1805463, 0.0)",-22.8050047,-43.1805463,0.0,North
51, Bancários,518.0,81.8,94.89999999999999,81.6,86.1," Bancários, Rio de Janeiro, Brazil","Bancários, Zona Norte do Rio de Janeiro, Rio de Janeiro, Região Geográfica Imediata do Rio de Janeiro, Região Metropolitana do Rio de Janeiro, Região Geográfica Intermediária do Rio de Janeiro, Rio de Janeiro, Região Sudeste, Brasil","(-22.7917588, -43.180966, 0.0)",-22.7917588,-43.180966,0.0,North
52,Maria da Graça,505.0,79.4,97.39999999999999,81.2,86.0,"Maria da Graça, Rio de Janeiro, Brazil","Maria da Graça, Zona Norte do Rio de Janeiro, Rio de Janeiro, Região Geográfica Imediata do Rio de Janeiro, Região Metropolitana do Rio de Janeiro, Região Geográfica Intermediária do Rio de Janeiro, Rio de Janeiro, Região Sudeste, Brasil","(-22.8830403, -43.2638849, 0.0)",-22.8830403,-43.2638849,0.0,North
53, Del Castilho,505.0,79.4,97.39999999999999,81.2,86.0," Del Castilho, Rio de Janeiro, Brazil","Del Castilho, Zona Norte do Rio de Janeiro, Rio de Janeiro, Região Geográfica Imediata do Rio de Janeiro, Região Metropolitana do Rio de Janeiro, Região Geográfica Intermediária do Rio de Janeiro, Rio de Janeiro, Região Sudeste, 20765000, Brasil","(-22.8795618, -43.2724202, 0.0)",-22.8795618,-43.2724202,0.0,North
54,Ribeira,527.0,79.7,96.1,81.89999999999999,85.9,"Ribeira, Rio de Janeiro, Brazil","Ribeira, Zona Norte do Rio de Janeiro, Rio de Janeiro, Região Geográfica Imediata do Rio de Janeiro, Região Metropolitana do Rio de Janeiro, Região Geográfica Intermediária do Rio de Janeiro, Rio de Janeiro, Região Sudeste, Brasil","(-22.8252399, -43.1705907, 0.0)",-22.8252399,-43.1705907,0.0,North
55, Cacuia,527.0,79.7,96.1,81.89999999999999,85.9," Cacuia, Rio de Janeiro, Brazil","Cacuia, Zona Norte do Rio de Janeiro, Rio de Janeiro, Região Geográfica Imediata do Rio de Janeiro, Região Metropolitana do Rio de Janeiro, Região Geográfica Intermediária do Rio de Janeiro, Rio de Janeiro, Região Sudeste, Brasil","(-22.8217028, -43.1837917, 0.0)",-22.8217028,-43.1837917,0.0,North
56,Lins de Vasconcelos,583.0,79.5,94.5,83.6,85.9,"Lins de Vasconcelos, Rio de Janeiro, Brazil","Lins de Vasconcelos, Zona Norte do Rio de Janeiro, Rio de Janeiro, Região Geográfica Imediata do Rio de Janeiro, Região Metropolitana do Rio de Janeiro, Região Geográfica Intermediária do Rio de Janeiro, Rio de Janeiro, Região Sudeste, Brasil","(-22.9140512, -43.2843528, 0.0)",-22.9140512,-43.2843528,0.0,North
57,Engenho Novo,573.0,78.9,95.3,83.3,85.8,"Engenho Novo, Rio de Janeiro, Brazil","Engenho Novo, Zona Norte do Rio de Janeiro, Rio de Janeiro, Região Geográfica Imediata do Rio de Janeiro, Região Metropolitana do Rio de Janeiro, Região Geográfica Intermediária do Rio de Janeiro, Rio de Janeiro, Região Sudeste, Brasil","(-22.9090942, -43.2678381, 0.0)",-22.9090942,-43.2678381,0.0,North
58,Zumbi,517.0,80.9,95.0,81.6,85.8,"Zumbi, Rio de Janeiro, Brazil","Zumbi, Zona Norte do Rio de Janeiro, Rio de Janeiro, Região Geográfica Imediata do Rio de Janeiro, Região Metropolitana do Rio de Janeiro, Região Geográfica Intermediária do Rio de Janeiro, Rio de Janeiro, Região Sudeste, Brasil","(-22.8212784, -43.1758609, 0.0)",-22.8212784,-43.1758609,0.0,North
59, Pitangueiras,517.0,80.9,95.0,81.6,85.8," Pitangueiras, Rio de Janeiro, Brazil","Pitangueiras, Zona Norte do Rio de Janeiro, Rio de Janeiro, Região Geográfica Imediata do Rio de Janeiro, Região Metropolitana do Rio de Janeiro, Região Geográfica Intermediária do Rio de Janeiro, Rio de Janeiro, Região Sudeste, Brasil","(-22.8171281, -43.1799542, 0.0)",-22.8171281,-43.1799542,0.0,North
60, Praia da Bandeira,517.0,80.9,95.0,81.6,85.8," Praia da Bandeira, Rio de Janeiro, Brazil","Praia da Bandeira, Zona Norte do Rio de Janeiro, Rio de Janeiro, Região Geográfica Imediata do Rio de Janeiro, Região Metropolitana do Rio de Janeiro, Região Geográfica Intermediária do Rio de Janeiro, Rio de Janeiro, Região Sudeste, Brasil","(-22.8104077, -43.179895, 0.0)",-22.8104077,-43.179895,0.0,North
61,Ramos,508.0,81.6,94.3,81.3,85.7,"Ramos, Rio de Janeiro, Brazil","Ramos, Zona Norte do Rio de Janeiro, Rio de Janeiro, Região Geográfica Imediata do Rio de Janeiro, Região Metropolitana do Rio de Janeiro, Região Geográfica Intermediária do Rio de Janeiro, Rio de Janeiro, Região Sudeste, Brasil","(-22.8519758, -43.2555693, 0.0)",-22.8519758,-43.2555693,0.0,North
62,Engenho de Dentro,536.0,79.4,95.39999999999999,82.19999999999999,85.7,"Engenho de Dentro, Rio de Janeiro, Brazil","Engenho de Dentro, Zona Norte do Rio de Janeiro, Rio de Janeiro, Região Geográfica Imediata do Rio de Janeiro, Região Metropolitana do Rio de Janeiro, Região Geográfica Intermediária do Rio de Janeiro, Rio de Janeiro, Região Sudeste, Brasil","(-22.9026591, -43.2967757, 0.0)",-22.9026591,-43.2967757,0.0,North
63,Abolição,467.0,80.5,96.6,79.9,85.7,"Abolição, Rio de Janeiro, Brazil","Abolição, Zona Norte do Rio de Janeiro, Rio de Janeiro, Região Geográfica Imediata do Rio de Janeiro, Região Metropolitana do Rio de Janeiro, Região Geográfica Intermediária do Rio de Janeiro, Rio de Janeiro, Região Sudeste, 20755-170, Brasil","(-22.8861614, -43.2998457, 0.0)",-22.8861614,-43.2998457,0.0,North
64,Deodoro,462.0,81.0,96.3,79.7,85.6,"Deodoro, Rio de Janeiro, Brazil","Deodoro, Zona Oeste do Rio de Janeiro, Rio de Janeiro, Região Geográfica Imediata do Rio de Janeiro, Região Metropolitana do Rio de Janeiro, Região Geográfica Intermediária do Rio de Janeiro, Rio de Janeiro, Região Sudeste, Brasil","(-22.851201, -43.3870315, 0.0)",-22.851201,-43.3870315,0.0,West
65, Vila Militar,462.0,81.0,96.3,79.7,85.6," Vila Militar, Rio de Janeiro, Brazil","Vila Militar, Zona Oeste do Rio de Janeiro, Rio de Janeiro, Região Geográfica Imediata do Rio de Janeiro, Região Metropolitana do Rio de Janeiro, Região Geográfica Intermediária do Rio de Janeiro, Rio de Janeiro, Região Sudeste, Brasil","(-22.860348, -43.4028933, 0.0)",-22.860348,-43.4028933,0.0,West
66, Campo dos Afonsos,462.0,81.0,96.3,79.7,85.6," Campo dos Afonsos, Rio de Janeiro, Brazil","Campo dos Afonsos, Zona Oeste do Rio de Janeiro, Rio de Janeiro, Região Geográfica Imediata do Rio de Janeiro, Região Metropolitana do Rio de Janeiro, Região Geográfica Intermediária do Rio de Janeiro, Rio de Janeiro, Região Sudeste, 21740-000, Brasil","(-22.8795186, -43.3803636, 0.0)",-22.8795186,-43.3803636,0.0,West
67,Jardim Sulacap,1134.0,88.8,98.9,95.7,94.39999999999999,"Jardim Sulacap, Rio de Janeiro, Brazil","Jardim Sulacap, Zona Oeste do Rio de Janeiro, Rio de Janeiro, Região Geográfica Imediata do Rio de Janeiro, Região Metropolitana do Rio de Janeiro, Região Geográfica Intermediária do Rio de Janeiro, Rio de Janeiro, Região Sudeste, 21741210, Brasil","(-22.8956799, -43.3929967, 0.0)",-22.8956799,-43.3929967,0.0,West
68,Oswaldo Cruz,441.0,81.0,96.5,78.9,85.5,"Oswaldo Cruz, Rio de Janeiro, Brazil","Osvaldo Cruz, Zona Norte do Rio de Janeiro, Rio de Janeiro, Região Geográfica Imediata do Rio de Janeiro, Região Metropolitana do Rio de Janeiro, Região Geográfica Intermediária do Rio de Janeiro, Rio de Janeiro, Região Sudeste, Brasil","(-22.8705266, -43.350194, 0.0)",-22.8705266,-43.350194,0.0,North
69,Olaria,460.0,81.39999999999999,94.89999999999999,79.60000000000001,85.3,"Olaria, Rio de Janeiro, Brazil","Olaria, Zona Norte do Rio de Janeiro, Rio de Janeiro, Região Geográfica Imediata do Rio de Janeiro, Região Metropolitana do Rio de Janeiro, Região Geográfica Intermediária do Rio de Janeiro, Rio de Janeiro, Região Sudeste, Brasil","(-22.8484866, -43.2706124, 0.0)",-22.8484866,-43.2706124,0.0,North
70,Bento Ribeiro,399.0,83.39999999999999,94.69999999999999,77.3,85.1,"Bento Ribeiro, Rio de Janeiro, Brazil","Bento Ribeiro, Zona Norte do Rio de Janeiro, Rio de Janeiro, Região Geográfica Imediata do Rio de Janeiro, Região Metropolitana do Rio de Janeiro, Região Geográfica Intermediária do Rio de Janeiro, Rio de Janeiro, Região Sudeste, Brasil","(-22.8666607, -43.3608367, 0.0)",-22.8666607,-43.3608367,0.0,North
71,Piedade,447.0,79.4,96.6,79.2,85.0,"Piedade, Rio de Janeiro, Brazil","Piedade, Zona Norte do Rio de Janeiro, Rio de Janeiro, Região Geográfica Imediata do Rio de Janeiro, Região Metropolitana do Rio de Janeiro, Região Geográfica Intermediária do Rio de Janeiro, Rio de Janeiro, Região Sudeste, Brasil","(-22.8926665, -43.3110001, 0.0)",-22.8926665,-43.3110001,0.0,North
72,Quintino Bocaiúva,424.0,81.5,95.19999999999999,78.3,85.0,"Quintino Bocaiúva, Rio de Janeiro, Brazil","Quintino Bocaiúva, Zona Norte do Rio de Janeiro, Rio de Janeiro, Região Geográfica Imediata do Rio de Janeiro, Região Metropolitana do Rio de Janeiro, Região Geográfica Intermediária do Rio de Janeiro, Rio de Janeiro, Região Sudeste, Brasil","(-22.8955889, -43.3253269, 0.0)",-22.8955889,-43.3253269,0.0,North
73,Rio Comprido,590.0,75.5,95.5,83.8,84.89999999999999,"Rio Comprido, Rio de Janeiro, Brazil","Rio Comprido, Zona Central do Rio de Janeiro, Rio de Janeiro, Região Geográfica Imediata do Rio de Janeiro, Região Metropolitana do Rio de Janeiro, Região Geográfica Intermediária do Rio de Janeiro, Rio de Janeiro, Região Sudeste, Brasil","(-22.9279449, -43.2088566, 0.0)",-22.9279449,-43.2088566,0.0,Downtown
74,Praça Seca,498.0,77.8,94.69999999999999,81.0,84.5,"Praça Seca, Rio de Janeiro, Brazil","Praça Seca, Zona Oeste do Rio de Janeiro, Rio de Janeiro, Região Geográfica Imediata do Rio de Janeiro, Região Metropolitana do Rio de Janeiro, Região Geográfica Intermediária do Rio de Janeiro, Rio de Janeiro, Região Sudeste, Brasil","(-22.8992621, -43.3527794, 0.0)",-22.8992621,-43.3527794,0.0,West
75,Jardim América,426.0,79.4,93.89999999999999,78.3,83.89999999999999,"Jardim América, Rio de Janeiro, Brazil","Jardim América, Zona Norte do Rio de Janeiro, Rio de Janeiro, Região Geográfica Imediata do Rio de Janeiro, Região Metropolitana do Rio de Janeiro, Região Geográfica Intermediária do Rio de Janeiro, Rio de Janeiro, Região Sudeste, Brasil","(-22.810005, -43.323212, 0.0)",-22.810005,-43.323212,0.0,North
76,Jacaré,513.0,76.1,94.1,81.5,83.89999999999999,"Jacaré, Rio de Janeiro, Brazil","Jacaré, Zona Norte do Rio de Janeiro, Rio de Janeiro, Região Geográfica Imediata do Rio de Janeiro, Região Metropolitana do Rio de Janeiro, Região Geográfica Intermediária do Rio de Janeiro, Rio de Janeiro, Região Sudeste, Brasil","(-22.8931174, -43.2571998, 0.0)",-22.8931174,-43.2571998,0.0,North
77, Rocha,513.0,76.1,94.1,81.5,83.89999999999999," Rocha, Rio de Janeiro, Brazil","Rocha, Zona Norte do Rio de Janeiro, Rio de Janeiro, Região Geográfica Imediata do Rio de Janeiro, Região Metropolitana do Rio de Janeiro, Região Geográfica Intermediária do Rio de Janeiro, Rio de Janeiro, Região Sudeste, Brasil","(-22.8995624, -43.2488072, 0.0)",-22.8995624,-43.2488072,0.0,North
78, Sampaio,513.0,76.1,94.1,81.5,83.89999999999999," Sampaio, Rio de Janeiro, Brazil","Sampaio, Zona Norte do Rio de Janeiro, Rio de Janeiro, Região Geográfica Imediata do Rio de Janeiro, Região Metropolitana do Rio de Janeiro, Região Geográfica Intermediária do Rio de Janeiro, Rio de Janeiro, Região Sudeste, 20725-000, Brasil","(-22.9022287, -43.2602402, 0.0)",-22.9022287,-43.2602402,0.0,North
79,Freguesia,557.0,75.5,93.30000000000001,82.8,83.89999999999999,"Freguesia, Rio de Janeiro, Brazil","Freguesia (Jacarepaguá), Zona Oeste do Rio de Janeiro, Rio de Janeiro, Região Geográfica Imediata do Rio de Janeiro, Região Metropolitana do Rio de Janeiro, Região Geográfica Intermediária do Rio de Janeiro, Rio de Janeiro, Região Sudeste, Brasil","(-22.9408899, -43.3422564, 0.0)",-22.9408899,-43.3422564,0.0,West
80,Jardim Carioca,436.0,79.4,92.7,78.7,83.6,"Jardim Carioca, Rio de Janeiro, Brazil","Jardim Carioca, Zona Norte do Rio de Janeiro, Rio de Janeiro, Região Geográfica Imediata do Rio de Janeiro, Região Metropolitana do Rio de Janeiro, Região Geográfica Intermediária do Rio de Janeiro, Rio de Janeiro, Região Sudeste, Brasil","(-22.8052493, -43.1931949, 0.0)",-22.8052493,-43.1931949,0.0,North
81,Engenho da Rainha,362.0,80.60000000000001,94.39999999999999,75.7,83.5,"Engenho da Rainha, Rio de Janeiro, Brazil","Engenho da Rainha, Zona Norte do Rio de Janeiro, Rio de Janeiro, Região Geográfica Imediata do Rio de Janeiro, Região Metropolitana do Rio de Janeiro, Região Geográfica Intermediária do Rio de Janeiro, Rio de Janeiro, Região Sudeste, 20765-171, Brasil","(-22.8626496, -43.2937874, 0.0)",-22.8626496,-43.2937874,0.0,North
82,Brás de Pina,397.0,79.4,93.8,77.2,83.5,"Brás de Pina, Rio de Janeiro, Brazil","Brás de Pina, Zona Norte do Rio de Janeiro, Rio de Janeiro, Região Geográfica Imediata do Rio de Janeiro, Região Metropolitana do Rio de Janeiro, Região Geográfica Intermediária do Rio de Janeiro, Rio de Janeiro, Região Sudeste, Brasil","(-22.831888, -43.2977309, 0.0)",-22.831888,-43.2977309,0.0,North
83,São Cristóvão,412.0,78.8,93.30000000000001,77.8,83.3,"São Cristóvão, Rio de Janeiro, Brazil","São Cristóvão, Zona Central do Rio de Janeiro, Rio de Janeiro, Região Geográfica Imediata do Rio de Janeiro, Região Metropolitana do Rio de Janeiro, Região Geográfica Intermediária do Rio de Janeiro, Rio de Janeiro, Região Sudeste, Brasil","(-22.899318, -43.2219346, 0.0)",-22.899318,-43.2219346,0.0,Downtown
84, Vasco da Gama,412.0,78.8,93.30000000000001,77.8,83.3," Vasco da Gama, Rio de Janeiro, Brazil","Vasco da Gama, Zona Central do Rio de Janeiro, Rio de Janeiro, Região Geográfica Imediata do Rio de Janeiro, Região Metropolitana do Rio de Janeiro, Região Geográfica Intermediária do Rio de Janeiro, Rio de Janeiro, Região Sudeste, Brasil","(-22.8915219, -43.2267195, 0.0)",-22.8915219,-43.2267195,0.0,Downtown
85,Cascadura,428.0,78.60000000000001,92.80000000000001,78.5,83.3,"Cascadura, Rio de Janeiro, Brazil","Cascadura, Zona Norte do Rio de Janeiro, Rio de Janeiro, Região Geográfica Imediata do Rio de Janeiro, Região Metropolitana do Rio de Janeiro, Região Geográfica Intermediária do Rio de Janeiro, Rio de Janeiro, Região Sudeste, Brasil","(-22.8841816, -43.3283969, 0.0)",-22.8841816,-43.3283969,0.0,North
86,Parque Anchieta,355.0,81.2,93.30000000000001,75.3,83.3,"Parque Anchieta, Rio de Janeiro, Brazil","Parque Anchieta, Zona Norte do Rio de Janeiro, Rio de Janeiro, Região Geográfica Imediata do Rio de Janeiro, Região Metropolitana do Rio de Janeiro, Região Geográfica Intermediária do Rio de Janeiro, Rio de Janeiro, Região Sudeste, Brasil","(-22.8351687, -43.4155827, 0.0)",-22.8351687,-43.4155827,0.0,North
87,Madureira,419.0,76.6,94.69999999999999,78.10000000000001,83.1,"Madureira, Rio de Janeiro, Brazil","Madureira, Zona Norte do Rio de Janeiro, Rio de Janeiro, Região Geográfica Imediata do Rio de Janeiro, Região Metropolitana do Rio de Janeiro, Região Geográfica Intermediária do Rio de Janeiro, Rio de Janeiro, Região Sudeste, Brasil","(-22.871658, -43.3371976, 0.0)",-22.871658,-43.3371976,0.0,North
88,Pilares,389.0,79.3,93.2,76.9,83.1,"Pilares, Rio de Janeiro, Brazil","Pilares, Zona Norte do Rio de Janeiro, Rio de Janeiro, Região Geográfica Imediata do Rio de Janeiro, Região Metropolitana do Rio de Janeiro, Região Geográfica Intermediária do Rio de Janeiro, Rio de Janeiro, Região Sudeste, Brasil","(-22.8790904, -43.2955477, 0.0)",-22.8790904,-43.2955477,0.0,North
89,Tanque,439.0,77.5,92.9,78.9,83.1,"Tanque, Rio de Janeiro, Brazil","Tanque, Zona Oeste do Rio de Janeiro, Rio de Janeiro, Região Geográfica Imediata do Rio de Janeiro, Região Metropolitana do Rio de Janeiro, Região Geográfica Intermediária do Rio de Janeiro, Rio de Janeiro, Região Sudeste, Brasil","(-22.9151927, -43.3557471, 0.0)",-22.9151927,-43.3557471,0.0,West
90,Estácio,413.0,81.2,89.7,77.8,82.89999999999999,"Estácio, Rio de Janeiro, Brazil","Estácio, Zona Central do Rio de Janeiro, Rio de Janeiro, Região Geográfica Imediata do Rio de Janeiro, Região Metropolitana do Rio de Janeiro, Região Geográfica Intermediária do Rio de Janeiro, Rio de Janeiro, Região Sudeste, Brasil","(-22.9166265, -43.20363, 0.0)",-22.9166265,-43.20363,0.0,Downtown
91,Curicica,362.0,79.3,93.5,75.7,82.8,"Curicica, Rio de Janeiro, Brazil","Curicica, Zona Oeste do Rio de Janeiro, Rio de Janeiro, Região Geográfica Imediata do Rio de Janeiro, Região Metropolitana do Rio de Janeiro, Região Geográfica Intermediária do Rio de Janeiro, Rio de Janeiro, Região Sudeste, Brasil","(-22.9519909, -43.3872901, 0.0)",-22.9519909,-43.3872901,0.0,West
92,Penha Circular,444.0,76.9,91.9,79.10000000000001,82.6,"Penha Circular, Rio de Janeiro, Brazil","Penha Circular, Zona Norte do Rio de Janeiro, Rio de Janeiro, Região Geográfica Imediata do Rio de Janeiro, Região Metropolitana do Rio de Janeiro, Região Geográfica Intermediária do Rio de Janeiro, Rio de Janeiro, Região Sudeste, Brasil","(-22.8326425, -43.2842228, 0.0)",-22.8326425,-43.2842228,0.0,North
93,Benfica,376.0,81.0,90.10000000000001,76.3,82.5,"Benfica, Rio de Janeiro, Brazil","Benfica, Zona Central do Rio de Janeiro, Rio de Janeiro, Região Geográfica Imediata do Rio de Janeiro, Região Metropolitana do Rio de Janeiro, Região Geográfica Intermediária do Rio de Janeiro, Rio de Janeiro, Região Sudeste, Brasil","(-22.8922965, -43.240341, 0.0)",-22.8922965,-43.240341,0.0,Downtown
94,Paquetá,457.0,81.8,85.39999999999999,79.5,82.19999999999999,"Paquetá, Rio de Janeiro, Brazil","Paquetá, Rio de Janeiro, Região Geográfica Imediata do Rio de Janeiro, Região Metropolitana do Rio de Janeiro, Região Geográfica Intermediária do Rio de Janeiro, Rio de Janeiro, Região Sudeste, Brasil","(-22.7589261, -43.1091992, 0.0)",-22.7589261,-43.1091992,0.0,North
95,Itanhangá,650.0,75.5,85.7,85.39999999999999,82.19999999999999,"Itanhangá, Rio de Janeiro, Brazil","Itanhangá, Zona Oeste do Rio de Janeiro, Rio de Janeiro, Região Geográfica Imediata do Rio de Janeiro, Região Metropolitana do Rio de Janeiro, Região Geográfica Intermediária do Rio de Janeiro, Rio de Janeiro, Região Sudeste, Brasil","(-22.9870911, -43.3049379, 0.0)",-22.9870911,-43.3049379,0.0,West
96,Tauá,416.0,77.10000000000001,90.10000000000001,78.0,81.69999999999999,"Tauá, Rio de Janeiro, Brazil","Tauá, Zona Norte do Rio de Janeiro, Rio de Janeiro, Região Geográfica Imediata do Rio de Janeiro, Região Metropolitana do Rio de Janeiro, Região Geográfica Intermediária do Rio de Janeiro, Rio de Janeiro, Região Sudeste, Brasil","(-22.7977495, -43.1867478, 0.0)",-22.7977495,-43.1867478,0.0,North
97,Rocha Miranda,338.0,76.6,93.4,74.5,81.5,"Rocha Miranda, Rio de Janeiro, Brazil","Rocha Miranda, Zona Norte do Rio de Janeiro, Rio de Janeiro, Região Geográfica Imediata do Rio de Janeiro, Região Metropolitana do Rio de Janeiro, Região Geográfica Intermediária do Rio de Janeiro, Rio de Janeiro, Região Sudeste, Brasil","(-22.8503472, -43.3463053, 0.0)",-22.8503472,-43.3463053,0.0,North
98,Marechal Hermes,366.0,75.2,93.30000000000001,75.8,81.39999999999999,"Marechal Hermes, Rio de Janeiro, Brazil","Marechal Hermes, Zona Norte do Rio de Janeiro, Rio de Janeiro, Região Geográfica Imediata do Rio de Janeiro, Região Metropolitana do Rio de Janeiro, Região Geográfica Intermediária do Rio de Janeiro, Rio de Janeiro, Região Sudeste, Brasil","(-22.8599658, -43.3704561, 0.0)",-22.8599658,-43.3704561,0.0,North
99,Turiaçu,336.0,75.2,94.0,74.4,81.2,"Turiaçu, Rio de Janeiro, Brazil","Turiaçu, Zona Norte do Rio de Janeiro, Rio de Janeiro, Região Geográfica Imediata do Rio de Janeiro, Região Metropolitana do Rio de Janeiro, Região Geográfica Intermediária do Rio de Janeiro, Rio de Janeiro, Região Sudeste, Brasil","(-22.8616631, -43.3418026, 0.0)",-22.8616631,-43.3418026,0.0,North
100,Guadalupe,336.0,75.2,93.4,74.4,81.0,"Guadalupe, Rio de Janeiro, Brazil","Guadalupe, Zona Norte do Rio de Janeiro, Rio de Janeiro, Região Geográfica Imediata do Rio de Janeiro, Região Metropolitana do Rio de Janeiro, Região Geográfica Intermediária do Rio de Janeiro, Rio de Janeiro, Região Sudeste, 21660-020, Brasil","(-22.8376208, -43.3751608, 0.0)",-22.8376208,-43.3751608,0.0,North
101,Inhaúma,324.0,76.1,93.10000000000001,73.8,81.0,"Inhaúma, Rio de Janeiro, Brazil","Inhaúma, Zona Norte do Rio de Janeiro, Rio de Janeiro, Região Geográfica Imediata do Rio de Janeiro, Região Metropolitana do Rio de Janeiro, Região Geográfica Intermediária do Rio de Janeiro, Rio de Janeiro, Região Sudeste, 21061310, Brasil","(-22.8715476, -43.2823466, 0.0)",-22.8715476,-43.2823466,0.0,North
102,Campo Grande,351.0,74.7,93.10000000000001,75.1,81.0,"Campo Grande, Rio de Janeiro, Brazil","Campo Grande, Zona Oeste do Rio de Janeiro, Rio de Janeiro, Região Geográfica Imediata do Rio de Janeiro, Região Metropolitana do Rio de Janeiro, Região Geográfica Intermediária do Rio de Janeiro, Rio de Janeiro, Região Sudeste, Brasil","(-22.902953, -43.5591295, 0.0)",-22.902953,-43.5591295,0.0,West
103,Cavalcanti,328.0,75.7,92.4,74.0,80.7,"Cavalcanti, Rio de Janeiro, Brazil","Cavalcanti, Zona Norte do Rio de Janeiro, Rio de Janeiro, Região Geográfica Imediata do Rio de Janeiro, Região Metropolitana do Rio de Janeiro, Região Geográfica Intermediária do Rio de Janeiro, Rio de Janeiro, Região Sudeste, Brasil","(-22.8705266, -43.3165261, 0.0)",-22.8705266,-43.3165261,0.0,North
104, Engenheiro Leal,328.0,75.7,92.4,74.0,80.7," Engenheiro Leal, Rio de Janeiro, Brazil","Engenheiro Leal, Zona Norte do Rio de Janeiro, Rio de Janeiro, Região Geográfica Imediata do Rio de Janeiro, Região Metropolitana do Rio de Janeiro, Região Geográfica Intermediária do Rio de Janeiro, Rio de Janeiro, Região Sudeste, Brasil","(-22.8743923, -43.3255315, 0.0)",-22.8743923,-43.3255315,0.0,North
105, Vaz Lobo,328.0,75.7,92.4,74.0,80.7," Vaz Lobo, Rio de Janeiro, Brazil","Vaz Lobo, Zona Norte do Rio de Janeiro, Rio de Janeiro, Região Geográfica Imediata do Rio de Janeiro, Região Metropolitana do Rio de Janeiro, Região Geográfica Intermediária do Rio de Janeiro, Rio de Janeiro, Região Sudeste, Brasil","(-22.8589721, -43.3278646, 0.0)",-22.8589721,-43.3278646,0.0,North
106,Ricardo de Albuquerque,283.0,76.6,94.0,71.5,80.7,"Ricardo de Albuquerque, Rio de Janeiro, Brazil","Ricardo de Albuquerque, Zona Norte do Rio de Janeiro, Rio de Janeiro, Região Geográfica Imediata do Rio de Janeiro, Região Metropolitana do Rio de Janeiro, Região Geográfica Intermediária do Rio de Janeiro, Rio de Janeiro, Região Sudeste, 21640-010, Brasil","(-22.8380924, -43.3963439, 0.0)",-22.8380924,-43.3963439,0.0,North
107,Coelho Neto,299.0,76.4,92.80000000000001,72.5,80.60000000000001,"Coelho Neto, Rio de Janeiro, Brazil","Coelho Neto, Zona Norte do Rio de Janeiro, Rio de Janeiro, Região Geográfica Imediata do Rio de Janeiro, Região Metropolitana do Rio de Janeiro, Região Geográfica Intermediária do Rio de Janeiro, Rio de Janeiro, Região Sudeste, Brasil","(-22.8322449, -43.3501913, 0.0)",-22.8322449,-43.3501913,0.0,North
108,Padre Miguel,313.0,75.2,92.9,73.2,80.4,"Padre Miguel, Rio de Janeiro, Brazil","Padre Miguel, Zona Oeste do Rio de Janeiro, Rio de Janeiro, Região Geográfica Imediata do Rio de Janeiro, Região Metropolitana do Rio de Janeiro, Região Geográfica Intermediária do Rio de Janeiro, Rio de Janeiro, Região Sudeste, Brasil","(-22.8788135, -43.4485569, 0.0)",-22.8788135,-43.4485569,0.0,West
109,Penha,373.0,74.3,90.8,76.1,80.4,"Penha, Rio de Janeiro, Brazil","Penha, Zona Norte do Rio de Janeiro, Rio de Janeiro, Região Geográfica Imediata do Rio de Janeiro, Região Metropolitana do Rio de Janeiro, Região Geográfica Intermediária do Rio de Janeiro, Rio de Janeiro, Região Sudeste, Brasil","(-22.8381127, -43.2764454, 0.0)",-22.8381127,-43.2764454,0.0,North
110,Honório Gurgel,303.0,74.8,93.7,72.7,80.4,"Honório Gurgel, Rio de Janeiro, Brazil","Honório Gurgel, Zona Norte do Rio de Janeiro, Rio de Janeiro, Região Geográfica Imediata do Rio de Janeiro, Região Metropolitana do Rio de Janeiro, Região Geográfica Intermediária do Rio de Janeiro, Rio de Janeiro, Região Sudeste, Brasil","(-22.8465751, -43.3561294, 0.0)",-22.8465751,-43.3561294,0.0,North
111,Realengo,316.0,74.4,93.10000000000001,73.4,80.30000000000001,"Realengo, Rio de Janeiro, Brazil","Realengo, Zona Oeste do Rio de Janeiro, Rio de Janeiro, Região Geográfica Imediata do Rio de Janeiro, Região Metropolitana do Rio de Janeiro, Região Geográfica Intermediária do Rio de Janeiro, Rio de Janeiro, Região Sudeste, Brasil","(-22.8772743, -43.4301032, 0.0)",-22.8772743,-43.4301032,0.0,West
112,Senador Vasconcelos,302.0,74.5,93.5,72.6,80.2,"Senador Vasconcelos, Rio de Janeiro, Brazil","Senador Vasconcelos, Zona Oeste do Rio de Janeiro, Rio de Janeiro, Região Geográfica Imediata do Rio de Janeiro, Região Metropolitana do Rio de Janeiro, Região Geográfica Intermediária do Rio de Janeiro, Rio de Janeiro, Região Sudeste, Brasil","(-22.8953684, -43.5288566, 0.0)",-22.8953684,-43.5288566,0.0,West
113,Tomás Coelho,325.0,74.8,91.9,73.9,80.2,"Tomás Coelho, Rio de Janeiro, Brazil","Tomás Coelho, Zona Norte do Rio de Janeiro, Rio de Janeiro, Região Geográfica Imediata do Rio de Janeiro, Região Metropolitana do Rio de Janeiro, Região Geográfica Intermediária do Rio de Janeiro, Rio de Janeiro, Região Sudeste, 20750-371, Brasil","(-22.8676979, -43.3060881, 0.0)",-22.8676979,-43.3060881,0.0,North
114,Magalhães Bastos,318.0,73.2,93.89999999999999,73.5,80.2,"Magalhães Bastos, Rio de Janeiro, Brazil","Magalhães Bastos, Zona Oeste do Rio de Janeiro, Rio de Janeiro, Região Geográfica Imediata do Rio de Janeiro, Região Metropolitana do Rio de Janeiro, Região Geográfica Intermediária do Rio de Janeiro, Rio de Janeiro, Região Sudeste, Brasil","(-22.8725117, -43.4136384, 0.0)",-22.8725117,-43.4136384,0.0,West
115,Catumbi,324.0,74.3,92.30000000000001,73.8,80.2,"Catumbi, Rio de Janeiro, Brazil","Catumbi, Zona Central do Rio de Janeiro, Rio de Janeiro, Região Geográfica Imediata do Rio de Janeiro, Região Metropolitana do Rio de Janeiro, Região Geográfica Intermediária do Rio de Janeiro, Rio de Janeiro, Região Sudeste, 20251-590, Brasil","(-22.9194542, -43.1970806, 0.0)",-22.9194542,-43.1970806,0.0,Downtown
116,Jamelão,357.0,72.2,92.30000000000001,75.4,80.0,"Jamelão, Rio de Janeiro, Brazil","Jamelão, Grajaú, Zona Norte do Rio de Janeiro, Rio de Janeiro, Região Geográfica Imediata do Rio de Janeiro, Região Metropolitana do Rio de Janeiro, Região Geográfica Intermediária do Rio de Janeiro, Rio de Janeiro, Região Sudeste, Brasil","(-22.933564349999997, -43.26178402800295, 0.0)",-22.933564349999997,-43.26178402800295,0.0,North
117, São Francisco Xavier,357.0,72.2,92.30000000000001,75.4,80.0," São Francisco Xavier, Rio de Janeiro, Brazil","São Francisco Xavier, Zona Norte do Rio de Janeiro, Rio de Janeiro, Região Geográfica Imediata do Rio de Janeiro, Região Metropolitana do Rio de Janeiro, Região Geográfica Intermediária do Rio de Janeiro, Rio de Janeiro, Região Sudeste, 20550-011, Brasil","(-22.9047617, -43.2440314, 0.0)",-22.9047617,-43.2440314,0.0,North
118,Vista Alegre,473.0,63.0,96.39999999999999,80.10000000000001,79.80000000000001,"Vista Alegre, Rio de Janeiro, Brazil","Vista Alegre, Zona Norte do Rio de Janeiro, Rio de Janeiro, Região Geográfica Imediata do Rio de Janeiro, Região Metropolitana do Rio de Janeiro, Região Geográfica Intermediária do Rio de Janeiro, Rio de Janeiro, Região Sudeste, Brasil","(-22.8296244, -43.3151276, 0.0)",-22.8296244,-43.3151276,0.0,North
119, Irajá,473.0,63.0,96.39999999999999,80.10000000000001,79.80000000000001," Irajá, Rio de Janeiro, Brazil","Irajá, Zona Norte do Rio de Janeiro, Rio de Janeiro, Região Geográfica Imediata do Rio de Janeiro, Região Metropolitana do Rio de Janeiro, Região Geográfica Intermediária do Rio de Janeiro, Rio de Janeiro, Região Sudeste, Brasil","(-22.8351129, -43.3233619, 0.0)",-22.8351129,-43.3233619,0.0,North
120,Bangu,296.0,74.6,91.3,72.3,79.4,"Bangu, Rio de Janeiro, Brazil","Bangu, Zona Oeste do Rio de Janeiro, Rio de Janeiro, Região Geográfica Imediata do Rio de Janeiro, Região Metropolitana do Rio de Janeiro, Região Geográfica Intermediária do Rio de Janeiro, Rio de Janeiro, Região Sudeste, Brasil","(-22.8753053, -43.4648805, 0.0)",-22.8753053,-43.4648805,0.0,West
121,Saúde,320.0,75.5,88.6,73.6,79.2,"Saúde, Rio de Janeiro, Brazil","Saúde, Zona Central do Rio de Janeiro, Rio de Janeiro, Região Geográfica Imediata do Rio de Janeiro, Região Metropolitana do Rio de Janeiro, Região Geográfica Intermediária do Rio de Janeiro, Rio de Janeiro, Região Sudeste, Brasil","(-22.8971835, -43.1841545, 0.0)",-22.8971835,-43.1841545,0.0,Downtown
122, Gamboa,320.0,75.5,88.6,73.6,79.2," Gamboa, Rio de Janeiro, Brazil","Gamboa, Zona Central do Rio de Janeiro, Rio de Janeiro, Região Geográfica Imediata do Rio de Janeiro, Região Metropolitana do Rio de Janeiro, Região Geográfica Intermediária do Rio de Janeiro, Rio de Janeiro, Região Sudeste, 20220-360, Brasil","(-22.8977491, -43.1929041, 0.0)",-22.8977491,-43.1929041,0.0,Downtown
123, Santo Cristo,320.0,75.5,88.6,73.6,79.2," Santo Cristo, Rio de Janeiro, Brazil","Santo Cristo, Zona Central do Rio de Janeiro, Rio de Janeiro, Região Geográfica Imediata do Rio de Janeiro, Região Metropolitana do Rio de Janeiro, Região Geográfica Intermediária do Rio de Janeiro, Rio de Janeiro, Região Sudeste, Brasil","(-22.9007657, -43.2033933, 0.0)",-22.9007657,-43.2033933,0.0,Downtown
124,Cordovil,290.0,72.2,93.2,72.0,79.10000000000001,"Cordovil, Rio de Janeiro, Brazil","Cordovil, Zona Norte do Rio de Janeiro, Rio de Janeiro, Região Geográfica Imediata do Rio de Janeiro, Região Metropolitana do Rio de Janeiro, Região Geográfica Intermediária do Rio de Janeiro, Rio de Janeiro, Região Sudeste, Brasil","(-22.8194378, -43.2915908, 0.0)",-22.8194378,-43.2915908,0.0,North
125,Pavuna,286.0,73.8,91.5,71.7,79.0,"Pavuna, Rio de Janeiro, Brazil","Pavuna, Zona Norte do Rio de Janeiro, Rio de Janeiro, Região Geográfica Imediata do Rio de Janeiro, Região Metropolitana do Rio de Janeiro, Região Geográfica Intermediária do Rio de Janeiro, Rio de Janeiro, Região Sudeste, Brasil","(-22.8121927, -43.3592811, 0.0)",-22.8121927,-43.3592811,0.0,North
126,Anchieta,278.0,73.2,92.0,71.2,78.8,"Anchieta, Rio de Janeiro, Brazil","Anchieta, Zona Norte do Rio de Janeiro, Rio de Janeiro, Região Geográfica Imediata do Rio de Janeiro, Região Metropolitana do Rio de Janeiro, Região Geográfica Intermediária do Rio de Janeiro, Rio de Janeiro, Região Sudeste, Brasil","(-22.8231903, -43.3991069, 0.0)",-22.8231903,-43.3991069,0.0,North
127,Santíssimo,256.0,73.9,90.3,69.8,78.0,"Santíssimo, Rio de Janeiro, Brazil","Santíssimo, Zona Oeste do Rio de Janeiro, Rio de Janeiro, Região Geográfica Imediata do Rio de Janeiro, Região Metropolitana do Rio de Janeiro, Região Geográfica Intermediária do Rio de Janeiro, Rio de Janeiro, Região Sudeste, Brasil","(-22.8751928, -43.5198512, 0.0)",-22.8751928,-43.5198512,0.0,West
128,Galeão,300.0,71.3,89.5,72.5,77.8,"Galeão, Rio de Janeiro, Brazil","Galeão, Zona Norte do Rio de Janeiro, Rio de Janeiro, Região Geográfica Imediata do Rio de Janeiro, Região Metropolitana do Rio de Janeiro, Região Geográfica Intermediária do Rio de Janeiro, Rio de Janeiro, Região Sudeste, Brasil","(-22.8075065, -43.2355215, 0.0)",-22.8075065,-43.2355215,0.0,North
129, Cidade Universitária,300.0,71.3,89.5,72.5,77.8," Cidade Universitária, Rio de Janeiro, Brazil","Cidade Universitária, Zona Norte do Rio de Janeiro, Rio de Janeiro, Região Geográfica Imediata do Rio de Janeiro, Região Metropolitana do Rio de Janeiro, Região Geográfica Intermediária do Rio de Janeiro, Rio de Janeiro, Região Sudeste, Brasil","(-22.8558233, -43.2309583, 0.0)",-22.8558233,-43.2309583,0.0,North
130,Vicente de Carvalho,296.0,70.89999999999999,88.7,72.3,77.3,"Vicente de Carvalho, Rio de Janeiro, Brazil","Vicente de Carvalho, Zona Norte do Rio de Janeiro, Rio de Janeiro, Região Geográfica Imediata do Rio de Janeiro, Região Metropolitana do Rio de Janeiro, Região Geográfica Intermediária do Rio de Janeiro, Rio de Janeiro, Região Sudeste, Brasil","(-22.8571804, -43.3157892, 0.0)",-22.8571804,-43.3157892,0.0,North
131,Jacarepaguá,331.0,70.89999999999999,85.8,74.2,76.9,"Jacarepaguá, Rio de Janeiro, Brazil","Jacarepaguá, Zona Oeste do Rio de Janeiro, Rio de Janeiro, Região Geográfica Imediata do Rio de Janeiro, Região Metropolitana do Rio de Janeiro, Região Geográfica Intermediária do Rio de Janeiro, Rio de Janeiro, Região Sudeste, Brasil","(-22.9665038, -43.3713193, 0.0)",-22.9665038,-43.3713193,0.0,West
132,Senador Camará,251.0,70.7,90.3,69.5,76.8,"Senador Camará, Rio de Janeiro, Brazil","Senador Camará, Zona Oeste do Rio de Janeiro, Rio de Janeiro, Região Geográfica Imediata do Rio de Janeiro, Região Metropolitana do Rio de Janeiro, Região Geográfica Intermediária do Rio de Janeiro, Rio de Janeiro, Região Sudeste, 21840-700, Brasil","(-22.8983985, -43.4891571, 0.0)",-22.8983985,-43.4891571,0.0,West
133,Gardênia Azul,274.0,71.3,88.0,71.0,76.8,"Gardênia Azul, Rio de Janeiro, Brazil","Gardênia Azul, Zona Oeste do Rio de Janeiro, Rio de Janeiro, Região Geográfica Imediata do Rio de Janeiro, Região Metropolitana do Rio de Janeiro, Região Geográfica Intermediária do Rio de Janeiro, Rio de Janeiro, Região Sudeste, 22765-451, Brasil","(-22.9582866, -43.3512241, 0.0)",-22.9582866,-43.3512241,0.0,West
134,Vigário Geral,296.0,69.39999999999999,87.3,72.3,76.3,"Vigário Geral, Rio de Janeiro, Brazil","Vigário Geral, Zona Norte do Rio de Janeiro, Rio de Janeiro, Região Geográfica Imediata do Rio de Janeiro, Região Metropolitana do Rio de Janeiro, Região Geográfica Intermediária do Rio de Janeiro, Rio de Janeiro, Região Sudeste, Brasil","(-22.8095333, -43.3097039, 0.0)",-22.8095333,-43.3097039,0.0,North
135,Colégio,262.0,70.6,87.8,70.3,76.2,"Colégio, Rio de Janeiro, Brazil","Colégio, Zona Norte do Rio de Janeiro, Rio de Janeiro, Região Geográfica Imediata do Rio de Janeiro, Região Metropolitana do Rio de Janeiro, Região Geográfica Intermediária do Rio de Janeiro, Rio de Janeiro, Região Sudeste, 21540-501, Brasil","(-22.83979, -43.3357623, 0.0)",-22.83979,-43.3357623,0.0,North
136,Sepetiba,264.0,68.8,89.0,70.39999999999999,76.1,"Sepetiba, Rio de Janeiro, Brazil","Sepetiba, Zona Oeste do Rio de Janeiro, Rio de Janeiro, Região Geográfica Imediata do Rio de Janeiro, Região Metropolitana do Rio de Janeiro, Região Geográfica Intermediária do Rio de Janeiro, Rio de Janeiro, Região Sudeste, 23530800, Brasil","(-22.9679803, -43.6940872, 0.0)",-22.9679803,-43.6940872,0.0,West
137,Cosmos,205.0,70.89999999999999,90.60000000000001,66.2,75.9,"Cosmos, Rio de Janeiro, Brazil","Cosmos, Zona Oeste do Rio de Janeiro, Rio de Janeiro, Região Geográfica Imediata do Rio de Janeiro, Região Metropolitana do Rio de Janeiro, Região Geográfica Intermediária do Rio de Janeiro, Rio de Janeiro, Região Sudeste, Brasil","(-22.9078051, -43.6144915, 0.0)",-22.9078051,-43.6144915,0.0,West
138,Caju,236.0,73.2,84.3,68.5,75.3,"Caju, Rio de Janeiro, Brazil","Caju, Zona Central do Rio de Janeiro, Rio de Janeiro, Região Geográfica Imediata do Rio de Janeiro, Região Metropolitana do Rio de Janeiro, Região Geográfica Intermediária do Rio de Janeiro, Rio de Janeiro, Região Sudeste, Brasil","(-22.8803063, -43.2214936, 0.0)",-22.8803063,-43.2214936,0.0,Downtown
139,Paciência,203.0,69.39999999999999,89.9,66.0,75.1,"Paciência, Rio de Janeiro, Brazil","Paciência, Zona Oeste do Rio de Janeiro, Rio de Janeiro, Região Geográfica Imediata do Rio de Janeiro, Região Metropolitana do Rio de Janeiro, Região Geográfica Intermediária do Rio de Janeiro, Rio de Janeiro, Região Sudeste, Brasil","(-22.8987, -43.6369556, 0.0)",-22.8987,-43.6369556,0.0,West
140,Cidade de Deus,207.0,69.39999999999999,89.4,66.3,75.1,"Cidade de Deus, Rio de Janeiro, Brazil","Cidade de Deus, Zona Oeste do Rio de Janeiro, Rio de Janeiro, Região Geográfica Imediata do Rio de Janeiro, Região Metropolitana do Rio de Janeiro, Região Geográfica Intermediária do Rio de Janeiro, Rio de Janeiro, Região Sudeste, Brasil","(-22.94803, -43.362903, 0.0)",-22.94803,-43.362903,0.0,West
141,Barros Filho,198.0,69.39999999999999,89.8,65.60000000000001,75.0,"Barros Filho, Rio de Janeiro, Brazil","Barros Filho, Zona Norte do Rio de Janeiro, Rio de Janeiro, Região Geográfica Imediata do Rio de Janeiro, Região Metropolitana do Rio de Janeiro, Região Geográfica Intermediária do Rio de Janeiro, Rio de Janeiro, Região Sudeste, 21515090, Brasil","(-22.8348857, -43.3631878, 0.0)",-22.8348857,-43.3631878,0.0,North
142,Inhoaíba,207.0,68.30000000000001,89.5,66.3,74.7,"Inhoaíba, Rio de Janeiro, Brazil","Inhoaíba, Zona Oeste do Rio de Janeiro, Rio de Janeiro, Região Geográfica Imediata do Rio de Janeiro, Região Metropolitana do Rio de Janeiro, Região Geográfica Intermediária do Rio de Janeiro, Rio de Janeiro, Região Sudeste, Brasil","(-22.9131775, -43.5932975, 0.0)",-22.9131775,-43.5932975,0.0,West
143,Camorim,279.0,68.8,83.6,71.3,74.6,"Camorim, Rio de Janeiro, Brazil","Camorim, Zona Oeste do Rio de Janeiro, Rio de Janeiro, Região Geográfica Imediata do Rio de Janeiro, Região Metropolitana do Rio de Janeiro, Região Geográfica Intermediária do Rio de Janeiro, Rio de Janeiro, Região Sudeste, Brasil","(-22.9711394, -43.4311836, 0.0)",-22.9711394,-43.4311836,0.0,West
144, Vargem Pequena,279.0,68.8,83.6,71.3,74.6," Vargem Pequena, Rio de Janeiro, Brazil","Vargem Pequena, Zona Oeste do Rio de Janeiro, Rio de Janeiro, Região Geográfica Imediata do Rio de Janeiro, Região Metropolitana do Rio de Janeiro, Região Geográfica Intermediária do Rio de Janeiro, Rio de Janeiro, Região Sudeste, Brasil","(-22.9818187, -43.4578117, 0.0)",-22.9818187,-43.4578117,0.0,West
145, Vargem Grande,279.0,68.8,83.6,71.3,74.6," Vargem Grande, Rio de Janeiro, Brazil","Vargem Grande, Zona Oeste do Rio de Janeiro, Rio de Janeiro, Região Geográfica Imediata do Rio de Janeiro, Região Metropolitana do Rio de Janeiro, Região Geográfica Intermediária do Rio de Janeiro, Rio de Janeiro, Região Sudeste, Brasil","(-22.9707911, -43.4968914, 0.0)",-22.9707911,-43.4968914,0.0,West
146,Parada de Lucas,220.0,67.2,89.0,67.30000000000001,74.5,"Parada de Lucas, Rio de Janeiro, Brazil","Parada de Lucas, Zona Norte do Rio de Janeiro, Rio de Janeiro, Região Geográfica Imediata do Rio de Janeiro, Região Metropolitana do Rio de Janeiro, Região Geográfica Intermediária do Rio de Janeiro, Rio de Janeiro, Região Sudeste, 21250-371, Brasil","(-22.8167023, -43.3012102, 0.0)",-22.8167023,-43.3012102,0.0,North
147,Guaratiba,234.0,69.39999999999999,85.3,68.4,74.4,"Guaratiba, Rio de Janeiro, Brazil","Guaratiba, Zona Oeste do Rio de Janeiro, Rio de Janeiro, Região Geográfica Imediata do Rio de Janeiro, Região Metropolitana do Rio de Janeiro, Região Geográfica Intermediária do Rio de Janeiro, Rio de Janeiro, Região Sudeste, Brasil","(-22.9905839, -43.584923, 0.0)",-22.9905839,-43.584923,0.0,West
148, Barra de Guaratiba,234.0,69.39999999999999,85.3,68.4,74.4," Barra de Guaratiba, Rio de Janeiro, Brazil","Barra de Guaratiba, Zona Oeste do Rio de Janeiro, Rio de Janeiro, Região Geográfica Imediata do Rio de Janeiro, Região Metropolitana do Rio de Janeiro, Região Geográfica Intermediária do Rio de Janeiro, Rio de Janeiro, Região Sudeste, Brasil","(-23.0360036, -43.5521395, 0.0)",-23.0360036,-43.5521395,0.0,West
149, Pedra de Guaratiba,234.0,69.39999999999999,85.3,68.4,74.4," Pedra de Guaratiba, Rio de Janeiro, Brazil","Pedra de Guaratiba, Zona Oeste do Rio de Janeiro, Rio de Janeiro, Região Geográfica Imediata do Rio de Janeiro, Região Metropolitana do Rio de Janeiro, Região Geográfica Intermediária do Rio de Janeiro, Rio de Janeiro, Região Sudeste, Brasil","(-22.9983546, -43.6388666, 0.0)",-22.9983546,-43.6388666,0.0,West
150,Santa Cruz,206.0,67.5,88.7,66.2,74.2,"Santa Cruz, Rio de Janeiro, Brazil","Santa Cruz, Zona Oeste do Rio de Janeiro, Rio de Janeiro, Região Geográfica Imediata do Rio de Janeiro, Região Metropolitana do Rio de Janeiro, Região Geográfica Intermediária do Rio de Janeiro, Rio de Janeiro, Região Sudeste, Brasil","(-22.9176248, -43.6834907, 0.0)",-22.9176248,-43.6834907,0.0,West
151,Rocinha,219.0,70.6,81.8,67.30000000000001,73.2,"Rocinha, Rio de Janeiro, Brazil","Rocinha, Zona Sul do Rio de Janeiro, Rio de Janeiro, Região Geográfica Imediata do Rio de Janeiro, Região Metropolitana do Rio de Janeiro, Região Geográfica Intermediária do Rio de Janeiro, Rio de Janeiro, Região Sudeste, Brasil","(-22.9885204, -43.2482058, 0.0)",-22.9885204,-43.2482058,0.0,South
152,Jacarezinho,177.0,68.8,86.7,63.800000000000004,73.1,"Jacarezinho, Rio de Janeiro, Brazil","Jacarezinho, Zona Norte do Rio de Janeiro, Rio de Janeiro, Região Geográfica Imediata do Rio de Janeiro, Região Metropolitana do Rio de Janeiro, Região Geográfica Intermediária do Rio de Janeiro, Rio de Janeiro, Região Sudeste, 20973-011, Brasil","(-22.8875068, -43.2578789, 0.0)",-22.8875068,-43.2578789,0.0,North
153,Manguinhos,188.0,68.8,84.2,64.8,72.6,"Manguinhos, Rio de Janeiro, Brazil","Manguinhos, Rua Leopoldo Bulhões, Parque João Goulart, Manguinhos, Zona Norte do Rio de Janeiro, Rio de Janeiro, Região Geográfica Imediata do Rio de Janeiro, Região Metropolitana do Rio de Janeiro, Região Geográfica Intermediária do Rio de Janeiro, Rio de Janeiro, Região Sudeste, 21040-360, Brasil","(-22.8796755, -43.2508881, 0.0)",-22.8796755,-43.2508881,0.0,North
154,Maré,187.0,69.3,82.6,64.60000000000001,72.2,"Maré, Rio de Janeiro, Brazil","Maré, Zona Norte do Rio de Janeiro, Rio de Janeiro, Região Geográfica Imediata do Rio de Janeiro, Região Metropolitana do Rio de Janeiro, Região Geográfica Intermediária do Rio de Janeiro, Rio de Janeiro, Região Sudeste, Brasil","(-22.8592368, -43.2425729, 0.0)",-22.8592368,-43.2425729,0.0,North
155,Acari,174.0,64.9,87.6,63.4,72.0,"Acari, Rio de Janeiro, Brazil","Acari, Zona Norte do Rio de Janeiro, Rio de Janeiro, Região Geográfica Imediata do Rio de Janeiro, Região Metropolitana do Rio de Janeiro, Região Geográfica Intermediária do Rio de Janeiro, Rio de Janeiro, Região Sudeste, 21531-010, Brasil","(-22.8221528, -43.3406743, 0.0)",-22.8221528,-43.3406743,0.0,North
156, Parque Colúmbia,174.0,64.9,87.6,63.4,72.0," Parque Colúmbia, Rio de Janeiro, Brazil","Parque Colúmbia, Zona Norte do Rio de Janeiro, Rio de Janeiro, Região Geográfica Imediata do Rio de Janeiro, Região Metropolitana do Rio de Janeiro, Região Geográfica Intermediária do Rio de Janeiro, Rio de Janeiro, Região Sudeste, Brasil","(-22.8138907, -43.3424983, 0.0)",-22.8138907,-43.3424983,0.0,North
157,Costa Barros,175.0,64.9,85.6,63.5,71.3,"Costa Barros, Rio de Janeiro, Brazil","Costa Barros, Zona Norte do Rio de Janeiro, Rio de Janeiro, Região Geográfica Imediata do Rio de Janeiro, Região Metropolitana do Rio de Janeiro, Região Geográfica Intermediária do Rio de Janeiro, Rio de Janeiro, Região Sudeste, Brasil","(-22.8246995, -43.3698395, 0.0)",-22.8246995,-43.3698395,0.0,North
158,Complexo do Alemão,177.0,66.3,83.39999999999999,63.7,70.0,"Complexo do Alemão, Rio de Janeiro, Brazil","Complexo do Alemão, Zona Norte do Rio de Janeiro, Rio de Janeiro, Região Geográfica Imediata do Rio de Janeiro, Região Metropolitana do Rio de Janeiro, Região Geográfica Intermediária do Rio de Janeiro, Rio de Janeiro, Região Sudeste, Brasil","(-22.8606097, -43.2737506, 0.0)",-22.8606097,-43.2737506,0.0,North
